STARLINK-31421          
1 59218U 24046T   26068.55982008  .00000550  00000+0  30686-4 0  9996
2 59218  53.1614 155.6822 0000945 117.4046 242.7051 15.30185382113021
TOMORROW-S2             
1 60485U 24149T   26068.75188364  .00008133  00000+0  27683-3 0  9990
2 60485  97.3857 150.0385 0001648 234.3331 125.7757 15.30674935 86869
